GSAT0216 (GALILEO 20)   
1 43056U 17079B   26181.79809325  .00000074  00000+0  00000+0 0  9992
2 43056  55.0708 221.1319 0004686 276.4690  83.5705  1.70474719 53233
GSAT0217 (GALILEO 21)   
1 43057U 17079C   26182.01889136  .00000074  00000+0  00000+0 0  9997
2 43057  55.0679 221.1236 0004859 286.9654  73.0732  1.70474451 53223
GSAT0218 (GALILEO 22)   
1 43058U 17079D   26183.41211817  .00000074  00000+0  00000+0 0  9998
2 43058  55.0685 221.0829 0006071 274.9367  85.0792  1.70474427 53271
BEIDOU-3 M7             
1 43107U 18003A   26182.84847182 -.00000064  00000+0  00000+0 0  9997
2 43107  54.3138 301.8036 0004560  96.5844 263.4825  1.86228484 57626
BEIDOU-3 M8             
1 43108U 18003B   26184.94083422 -.00000059  00000+0  00000+0 0  9994
2 43108  54.3045 301.7129 0002939 257.9576 102.0322  1.86231143 57670
BEIDOU-3 M4             
1 43207U 18018A   26181.08829659 -.00000050  00000+0  00000+0 0  9993
2 43207  56.6620  62.7232 0007448  23.9137 336.1827  1.86231543 56984
BEIDOU-3 M3             
1 43208U 18018B   26182.22869795 -.00000042  00000+0  00000+0 0  9997
2 43208  56.6624  62.6897 0008079 343.2335  16.8061  1.86231467 57005
BEIDOU-3 M9             
1 43245U 18029A   26182.44659247 -.00000063  00000+0  00000+0 0  9996
2 43245  54.1799 299.4503 0001004 175.4887 184.5291  1.86228732 56169
BEIDOU-3 M10            
1 43246U 18029B   26182.38087813 -.00000063  00000+0  00000+0 0  9994
2 43246  54.1777 299.4786 0003616  39.0295 321.0130  1.86229617 56149
IRNSS-1I                
1 43286U 18035A   26179.79558490  .00000066  00000+0  00000+0 0  9992
2 43286  28.7805  74.0157 0017671 182.6115   1.5908  1.00277388 30197
COSMOS 2527 [GLONASS-M] 
1 43508U 18053A   26183.10109635 -.00000009  00000+0  00000+0 0  9990
2 43508  65.5856  73.4097 0006722 233.8398 126.1632  2.13102340 62599
BEIDOU-2 IGSO-7         
1 43539U 18057A   26182.89122331 -.00000033  00000+0  00000+0 0  9998
2 43539  55.1981 162.9292 0104946 237.8611 308.6338  1.00246939 29273
GSAT0221 (GALILEO 25)   
1 43564U 18060A   26182.14297392 -.00000082  00000+0  00000+0 0  9992
2 43564  57.1648 341.4040 0002519 293.8914  66.0735  1.70476287 49400
GSAT0222 (GALILEO 26)   
1 43565U 18060B   26182.36264971 -.00000081  00000+0  00000+0 0  9993
2 43565  57.1683 341.4018 0002335 239.2507 120.7178  1.70476063 49459
GSAT0219 (GALILEO 23)   
1 43566U 18060C   26183.17010913 -.00000079  00000+0  00000+0 0  9996
2 43566  57.1675 341.3816 0001774 308.8571  51.1194  1.70476198 49449
GSAT0220 (GALILEO 24)   
1 43567U 18060D   26181.04476869 -.00000086  00000+0  00000+0 0  9995
2 43567  57.1670 341.4391 0001914 299.6424  60.3296  1.70476251 49393
BEIDOU-3 M5             
1 43581U 18062A   26182.60485400  .00000071  00000+0  00000+0 0  9990
2 43581  54.0865 181.8139 0005701 291.6119  68.3325  1.86228820 53905
BEIDOU-3 M6             
1 43582U 18062B   26181.93143955  .00000069  00000+0  00000+0 0  9999
2 43582  54.0861 181.8260 0005166   9.1452 350.8724  1.86227996 53897
BEIDOU-3 M12            
1 43602U 18067A   26184.01768262  .00000079  00000+0  00000+0 0  9994
2 43602  54.1813 180.5033 0007901  29.9271 330.1165  1.86227858 53415
BEIDOU-3 M11            
1 43603U 18067B   26184.15279060  .00000080  00000+0  00000+0 0  9995
2 43603  54.1787 180.4623 0004616  13.1281 346.8822  1.86227322 53449
BEIDOU-3 M13            
1 43622U 18072A   26183.57063733 -.00000037  00000+0  00000+0 0  9998
2 43622  56.6380  62.1518 0006630 331.9120  28.1218  1.86231573 52942
BEIDOU-3 M14            
1 43623U 18072B   26183.97302059 -.00000036  00000+0  00000+0 0  9999
2 43623  56.6399  62.1331 0005705   5.9909 354.0859  1.86231600 52944
BEIDOU-3 M16            
1 43647U 18078A   26181.44336447 -.00000069  00000+0  00000+0 0  9995
2 43647  54.0771 299.5213 0006891  40.4774 319.5856  1.86232447 52406
BEIDOU-3 M15            
1 43648U 18078B   26181.03569112 -.00000071  00000+0  00000+0 0  9991
2 43648  54.0730 299.5360 0003881  58.0730 301.9745  1.86232575 52413
BEIDOU-3 G1             
1 43683U 18085A   26184.63864089 -.00000099  00000+0  00000+0 0  9998
2 43683   2.9080  96.9396 0008556 353.6394 220.9042  1.00270926 28224
COSMOS 2529 [GLONASS-M] 
1 43687U 18086A   26183.19741874  .00000081  00000+0  00000+0 0  9999
2 43687  64.2962 192.0874 0012102 256.3420 103.5558  2.13102148 59607
BEIDOU-3 M17            
1 43706U 18093A   26181.72970282  .00000069  00000+0  00000+0 0  9999
2 43706  54.1700 181.8368 0010166 292.9886  63.8528  1.86228547 51788
BEIDOU-3 M18            
1 43707U 18093B   26181.06086973  .00000070  00000+0  00000+0 0  9994
2 43707  54.1707 181.8515 0008089 321.6301  38.3251  1.86226728 51771
NAVSTAR 77 (USA 289)    
1 43873U 18109A   26183.72209838 -.00000009  00000+0  00000+0 0  9991
2 43873  55.6905  91.5743 0038554 197.5266 343.1404  2.00562535 55385
BEIDOU-3 IGSO-1         
1 44204U 19023A   26183.86157338 -.00000197  00000+0  00000+0 0  9996
2 44204  58.7163  37.4891 0025641 224.0382  88.2901  1.00287534  7361
BEIDOU-2 G8             
1 44231U 19027A   26184.96572112 -.00000236  00000+0  00000+0 0  9997
2 44231   1.6979  74.5471 0010024 284.9546  54.5794  1.00276034 26242
